{
  "type": "FeatureCollection",
  "features": [
    {
      "type": "Feature",
      "properties": {
        "norad_id": 57400,
        "name": "TIANMU-1 08",
        "group": "weather",
        "lat": -7.618556054910875,
        "lon": 45.83689464920016,
        "alt_km": 483.4040214302686,
        "timestamp": "2025-12-21T09:37:22.291592+00:00",
        "meta_object_name": "TIANMU-1 08",
        "meta_object_id": "2023-101B",
        "meta_epoch": "2025-12-21T04:56:30.444288",
        "meta_mean_motion": 15.28163694,
        "meta_eccentricity": 0.0007186,
        "meta_inclination": 97.2852,
        "meta_ra_of_asc_node": 44.6657,
        "meta_arg_of_pericenter": 60.0992,
        "meta_mean_anomaly": 300.0961,
        "meta_ephemeris_type": 0,
        "meta_classification_type": "U",
        "meta_norad_cat_id": 57400,
        "meta_element_set_no": 999,
        "meta_rev_at_epoch": 13444,
        "meta_bstar": 0.00018303,
        "meta_mean_motion_dot": 4.954e-05,
        "meta_mean_motion_ddot": 0,
        "tle_line1": "1 57400U 23101B   25355.20590792  .00004954  00000+0  18303-3 0  9996",
        "tle_line2": "2 57400  97.2852  44.6657 0007186  60.0992 300.0961 15.28163694134441"
      },
      "geometry": {
        "type": "Point",
        "coordinates": [
          45.83689464920016,
          -7.618556054910875
        ]
      }
    },
    {
      "type": "Feature",
      "properties": {
        "norad_id": 57401,
        "name": "TIANMU-1 09",
        "group": "weather",
        "lat": 65.08495717638739,
        "lon": 28.38848167911104,
        "alt_km": 470.4755555126476,
        "timestamp": "2025-12-21T09:37:22.291603+00:00",
        "meta_object_name": "TIANMU-1 09",
        "meta_object_id": "2023-101C",
        "meta_epoch": "2025-12-21T04:37:13.665792",
        "meta_mean_motion": 15.28196935,
        "meta_eccentricity": 0.0006457,
        "meta_inclination": 97.2809,
        "meta_ra_of_asc_node": 44.1616,
        "meta_arg_of_pericenter": 60.6366,
        "meta_mean_anomaly": 299.5518,
        "meta_ephemeris_type": 0,
        "meta_classification_type": "U",
        "meta_norad_cat_id": 57401,
        "meta_element_set_no": 999,
        "meta_rev_at_epoch": 13444,
        "meta_bstar": 0.00018885,
        "meta_mean_motion_dot": 5.119e-05,
        "meta_mean_motion_ddot": 0,
        "tle_line1": "1 57401U 23101C   25355.19251928  .00005119  00000+0  18885-3 0  9999",
        "tle_line2": "2 57401  97.2809  44.1616 0006457  60.6366 299.5518 15.28196935134449"
      },
      "geometry": {
        "type": "Point",
        "coordinates": [
          28.38848167911104,
          65.08495717638739
        ]
      }
    },
    {
      "type": "Feature",
      "properties": {
        "norad_id": 57402,
        "name": "TIANMU-1 10",
        "group": "weather",
        "lat": -57.148806979850335,
        "lon": -146.20877373181787,
        "alt_km": 493.9748137202314,
        "timestamp": "2025-12-21T09:37:22.291614+00:00",
        "meta_object_name": "TIANMU-1 10",
        "meta_object_id": "2023-101D",
        "meta_epoch": "2025-12-21T03:52:16.160160",
        "meta_mean_motion": 15.28188085,
        "meta_eccentricity": 0.0008196,
        "meta_inclination": 97.289,
        "meta_ra_of_asc_node": 44.9899,
        "meta_arg_of_pericenter": 59.0573,
        "meta_mean_anomaly": 301.1472,
        "meta_ephemeris_type": 0,
        "meta_classification_type": "U",
        "meta_norad_cat_id": 57402,
        "meta_element_set_no": 999,
        "meta_rev_at_epoch": 13443,
        "meta_bstar": 0.00019249,
        "meta_mean_motion_dot": 5.219e-05,
        "meta_mean_motion_ddot": 0,
        "tle_line1": "1 57402U 23101D   25355.16129815  .00005219  00000+0  19249-3 0  9992",
        "tle_line2": "2 57402  97.2890  44.9899 0008196  59.0573 301.1472 15.28188085134430"
      },
      "geometry": {
        "type": "Point",
        "coordinates": [
          -146.20877373181787,
          -57.148806979850335
        ]
      }
    },
    {
      "type": "Feature",
      "properties": {
        "norad_id": 57490,
        "name": "FENGYUN 3F",
        "group": "weather",
        "lat": 7.943864762196926,
        "lon": 62.3288340727552,
        "alt_km": 827.6764575851766,
        "timestamp": "2025-12-21T09:37:22.291624+00:00",
        "meta_object_name": "FENGYUN 3F",
        "meta_object_id": "2023-111A",
        "meta_epoch": "2025-12-21T04:30:41.251680",
        "meta_mean_motion": 14.1989563,
        "meta_eccentricity": 7.66e-05,
        "meta_inclination": 98.7073,
        "meta_ra_of_asc_node": 63.3447,
        "meta_arg_of_pericenter": 114.3941,
        "meta_mean_anomaly": 245.7316,
        "meta_ephemeris_type": 0,
        "meta_classification_type": "U",
        "meta_norad_cat_id": 57490,
        "meta_element_set_no": 999,
        "meta_rev_at_epoch": 12360,
        "meta_bstar": 4.9245e-05,
        "meta_mean_motion_dot": 6.1e-07,
        "meta_mean_motion_ddot": 0,
        "tle_line1": "1 57490U 23111A   25355.18797745  .00000061  00000+0  49245-4 0  9995",
        "tle_line2": "2 57490  98.7073  63.3447 0000766 114.3941 245.7316 14.19895630123606"
      },
      "geometry": {
        "type": "Point",
        "coordinates": [
          62.3288340727552,
          7.943864762196926
        ]
      }
    },
    {
      "type": "Feature",
      "properties": {
        "norad_id": 58584,
        "name": "ARKTIKA-M 2",
        "group": "weather",
        "lat": 51.764955089885184,
        "lon": -146.18138542012454,
        "alt_km": 30069.698834595085,
        "timestamp": "2025-12-21T09:37:22.291636+00:00",
        "meta_object_name": "ARKTIKA-M 2",
        "meta_object_id": "2023-198A",
        "meta_epoch": "2025-12-20T07:20:06.590112",
        "meta_mean_motion": 2.00602824,
        "meta_eccentricity": 0.68654675,
        "meta_inclination": 63.225,
        "meta_ra_of_asc_node": 174.0676,
        "meta_arg_of_pericenter": 268.0739,
        "meta_mean_anomaly": 18.8406,
        "meta_ephemeris_type": 0,
        "meta_classification_type": "U",
        "meta_norad_cat_id": 58584,
        "meta_element_set_no": 999,
        "meta_rev_at_epoch": 1473,
        "meta_bstar": 0,
        "meta_mean_motion_dot": 2.01e-06,
        "meta_mean_motion_ddot": 0,
        "tle_line1": "1 58584U 23198A   25354.30563183  .00000201  00000+0  00000+0 0  9992",
        "tle_line2": "2 58584  63.2250 174.0676 6865467 268.0739  18.8406  2.00602824 14734"
      },
      "geometry": {
        "type": "Point",
        "coordinates": [
          -146.18138542012454,
          51.764955089885184
        ]
      }
    },
    {
      "type": "Feature",
      "properties": {
        "norad_id": 58645,
        "name": "TIANMU-1 11",
        "group": "weather",
        "lat": -51.026454497412224,
        "lon": 24.0649201100231,
        "alt_km": 494.4293877955606,
        "timestamp": "2025-12-21T09:37:22.291652+00:00",
        "meta_object_name": "TIANMU-1 11",
        "meta_object_id": "2023-205A",
        "meta_epoch": "2025-12-21T03:32:53.981664",
        "meta_mean_motion": 15.24692283,
        "meta_eccentricity": 0.0007531,
        "meta_inclination": 97.3594,
        "meta_ra_of_asc_node": 14.6234,
        "meta_arg_of_pericenter": 274.6596,
        "meta_mean_anomaly": 85.3781,
        "meta_ephemeris_type": 0,
        "meta_classification_type": "U",
        "meta_norad_cat_id": 58645,
        "meta_element_set_no": 999,
        "meta_rev_at_epoch": 11037,
        "meta_bstar": 0.00017425,
        "meta_mean_motion_dot": 4.239e-05,
        "meta_mean_motion_ddot": 0,
        "tle_line1": "1 58645U 23205A   25355.14784701  .00004239  00000+0  17425-3 0  9991",
        "tle_line2": "2 58645  97.3594  14.6234 0007531 274.6596  85.3781 15.24692283110378"
      },
      "geometry": {
        "type": "Point",
        "coordinates": [
          24.0649201100231,
          -51.026454497412224
        ]
      }
    },
    {
      "type": "Feature",
      "properties": {
        "norad_id": 58646,
        "name": "TIANMU-1 12",
        "group": "weather",
        "lat": 22.73958241435197,
        "lon": -162.22066833908767,
        "alt_km": 492.1427922399871,
        "timestamp": "2025-12-21T09:37:22.291662+00:00",
        "meta_object_name": "TIANMU-1 12",
        "meta_object_id": "2023-205B",
        "meta_epoch": "2025-12-21T04:12:37.518336",
        "meta_mean_motion": 15.24577894,
        "meta_eccentricity": 0.0005835,
        "meta_inclination": 97.3582,
        "meta_ra_of_asc_node": 14.4531,
        "meta_arg_of_pericenter": 253.0339,
        "meta_mean_anomaly": 107.0259,
        "meta_ephemeris_type": 0,
        "meta_classification_type": "U",
        "meta_norad_cat_id": 58646,
        "meta_element_set_no": 999,
        "meta_rev_at_epoch": 11036,
        "meta_bstar": 0.00017431,
        "meta_mean_motion_dot": 4.225e-05,
        "meta_mean_motion_ddot": 0,
        "tle_line1": "1 58646U 23205B   25355.17543424  .00004225  00000+0  17431-3 0  9992",
        "tle_line2": "2 58646  97.3582  14.4531 0005835 253.0339 107.0259 15.24577894110366"
      },
      "geometry": {
        "type": "Point",
        "coordinates": [
          -162.22066833908767,
          22.73958241435197
        ]
      }
    }
  ]
}